{
  "type": "FeatureCollection",
  "features": [
    {
      "type": "Feature",
      "properties": {
        "norad_id": 41877,
        "name": "RESOURCESAT-2A",
        "group": "resource",
        "lat": -81.1508669238318,
        "lon": 130.54816669377655,
        "alt_km": 826.566150050704,
        "timestamp": "2025-12-03T17:47:50.369607+00:00",
        "meta_object_name": "RESOURCESAT-2A",
        "meta_object_id": "2016-074A",
        "meta_epoch": "2025-12-03T11:27:29.430144",
        "meta_mean_motion": 14.21593036,
        "meta_eccentricity": 0.0001168,
        "meta_inclination": 98.7768,
        "meta_ra_of_asc_node": 47.387,
        "meta_arg_of_pericenter": 301.399,
        "meta_mean_anomaly": 58.7073,
        "meta_ephemeris_type": 0,
        "meta_classification_type": "U",
        "meta_norad_cat_id": 41877,
        "meta_element_set_no": 999,
        "meta_rev_at_epoch": 46649,
        "meta_bstar": 0.000141,
        "meta_mean_motion_dot": 2.65e-06,
        "meta_mean_motion_ddot": 0,
        "tle_line1": "1 41877U 16074A   25337.47742396  .00000265  00000+0  14100-3 0  9998",
        "tle_line2": "2 41877  98.7768  47.3870 0001168 301.3990  58.7073 14.21593036466497"
      },
      "geometry": {
        "type": "Point",
        "coordinates": [
          130.54816669377655,
          -81.1508669238318
        ]
      }
    },
    {
      "type": "Feature",
      "properties": {
        "norad_id": 41948,
        "name": "CARTOSAT-2D",
        "group": "resource",
        "lat": 0.8598067060336554,
        "lon": 35.26330998519174,
        "alt_km": 514.0636835173882,
        "timestamp": "2025-12-03T17:47:50.369618+00:00",
        "meta_object_name": "CARTOSAT-2D",
        "meta_object_id": "2017-008A",
        "meta_epoch": "2025-12-03T11:28:15.434688",
        "meta_mean_motion": 15.19342329,
        "meta_eccentricity": 0.0004909,
        "meta_inclination": 97.4403,
        "meta_ra_of_asc_node": 35.116,
        "meta_arg_of_pericenter": 197.1984,
        "meta_mean_anomaly": 162.9085,
        "meta_ephemeris_type": 0,
        "meta_classification_type": "U",
        "meta_norad_cat_id": 41948,
        "meta_element_set_no": 999,
        "meta_rev_at_epoch": 48786,
        "meta_bstar": 2.9883e-06,
        "meta_mean_motion_dot": -4e-08,
        "meta_mean_motion_ddot": 0,
        "tle_line1": "1 41948U 17008A   25337.47795642 -.00000004  00000+0  29883-5 0  9995",
        "tle_line2": "2 41948  97.4403  35.1160 0004909 197.1984 162.9085 15.19342329487865"
      },
      "geometry": {
        "type": "Point",
        "coordinates": [
          35.26330998519174,
          0.8598067060336554
        ]
      }
    },
    {
      "type": "Feature",
      "properties": {
        "norad_id": 42063,
        "name": "SENTINEL-2B",
        "group": "resource",
        "lat": -57.38182832622825,
        "lon": 63.94671894058689,
        "alt_km": 796.8159348125773,
        "timestamp": "2025-12-03T17:47:50.369630+00:00",
        "meta_object_name": "SENTINEL-2B",
        "meta_object_id": "2017-013A",
        "meta_epoch": "2025-12-03T11:21:23.686848",
        "meta_mean_motion": 14.30809969,
        "meta_eccentricity": 0.0001117,
        "meta_inclination": 98.5727,
        "meta_ra_of_asc_node": 50.0489,
        "meta_arg_of_pericenter": 98.2636,
        "meta_mean_anomaly": 261.8674,
        "meta_ephemeris_type": 0,
        "meta_classification_type": "U",
        "meta_norad_cat_id": 42063,
        "meta_element_set_no": 999,
        "meta_rev_at_epoch": 45665,
        "meta_bstar": 0.00011453,
        "meta_mean_motion_dot": 2.57e-06,
        "meta_mean_motion_ddot": 0,
        "tle_line1": "1 42063U 17013A   25337.47319082  .00000257  00000+0  11453-3 0  9991",
        "tle_line2": "2 42063  98.5727  50.0489 0001117  98.2636 261.8674 14.30809969456654"
      },
      "geometry": {
        "type": "Point",
        "coordinates": [
          63.94671894058689,
          -57.38182832622825
        ]
      }
    },
    {
      "type": "Feature",
      "properties": {
        "norad_id": 42767,
        "name": "CARTOSAT-2E",
        "group": "resource",
        "lat": -82.48384269717022,
        "lon": 118.57802133763673,
        "alt_km": 514.1709438624166,
        "timestamp": "2025-12-03T17:47:50.369641+00:00",
        "meta_object_name": "CARTOSAT-2E",
        "meta_object_id": "2017-036C",
        "meta_epoch": "2025-12-03T11:51:56.584224",
        "meta_mean_motion": 15.19169077,
        "meta_eccentricity": 0.0002305,
        "meta_inclination": 97.4577,
        "meta_ra_of_asc_node": 35.2016,
        "meta_arg_of_pericenter": 286.1586,
        "meta_mean_anomaly": 73.9394,
        "meta_ephemeris_type": 0,
        "meta_classification_type": "U",
        "meta_norad_cat_id": 42767,
        "meta_element_set_no": 999,
        "meta_rev_at_epoch": 46843,
        "meta_bstar": 0.00036503,
        "meta_mean_motion_dot": 7.61e-05,
        "meta_mean_motion_ddot": 0,
        "tle_line1": "1 42767U 17036C   25337.49440491  .00007610  00000+0  36503-3 0  9991",
        "tle_line2": "2 42767  97.4577  35.2016 0002305 286.1586  73.9394 15.19169077468436"
      },
      "geometry": {
        "type": "Point",
        "coordinates": [
          118.57802133763673,
          -82.48384269717022
        ]
      }
    },
    {
      "type": "Feature",
      "properties": {
        "norad_id": 42920,
        "name": "FORMOSAT-5",
        "group": "resource",
        "lat": 10.781279423920083,
        "lon": 50.65625955781502,
        "alt_km": 718.7056329216475,
        "timestamp": "2025-12-03T17:47:50.369652+00:00",
        "meta_object_name": "FORMOSAT-5",
        "meta_object_id": "2017-049A",
        "meta_epoch": "2025-12-03T11:07:38.309376",
        "meta_mean_motion": 14.50996077,
        "meta_eccentricity": 0.0010318,
        "meta_inclination": 98.2463,
        "meta_ra_of_asc_node": 51.9663,
        "meta_arg_of_pericenter": 326.5199,
        "meta_mean_anomaly": 33.5343,
        "meta_ephemeris_type": 0,
        "meta_classification_type": "U",
        "meta_norad_cat_id": 42920,
        "meta_element_set_no": 999,
        "meta_rev_at_epoch": 43829,
        "meta_bstar": 0.00011248,
        "meta_mean_motion_dot": 4.01e-06,
        "meta_mean_motion_ddot": 0,
        "tle_line1": "1 42920U 17049A   25337.46363784  .00000401  00000+0  11248-3 0  9992",
        "tle_line2": "2 42920  98.2463  51.9663 0010318 326.5199  33.5343 14.50996077438294"
      },
      "geometry": {
        "type": "Point",
        "coordinates": [
          50.65625955781502,
          10.781279423920083
        ]
      }
    },
    {
      "type": "Feature",
      "properties": {
        "norad_id": 42969,
        "name": "SENTINEL-5P",
        "group": "resource",
        "lat": -15.35256843639821,
        "lon": -81.16289025852076,
        "alt_km": 831.8002573252443,
        "timestamp": "2025-12-03T17:47:50.369662+00:00",
        "meta_object_name": "SENTINEL-5P",
        "meta_object_id": "2017-064A",
        "meta_epoch": "2025-12-03T11:06:13.207104",
        "meta_mean_motion": 14.19513611,
        "meta_eccentricity": 9.45e-05,
        "meta_inclination": 98.777,
        "meta_ra_of_asc_node": 276.1297,
        "meta_arg_of_pericenter": 85.843,
        "meta_mean_anomaly": 274.2854,
        "meta_ephemeris_type": 0,
        "meta_classification_type": "U",
        "meta_norad_cat_id": 42969,
        "meta_element_set_no": 999,
        "meta_rev_at_epoch": 42179,
        "meta_bstar": 8.3656e-05,
        "meta_mean_motion_dot": 1.32e-06,
        "meta_mean_motion_ddot": 0,
        "tle_line1": "1 42969U 17064A   25337.46265286  .00000132  00000+0  83656-4 0  9994",
        "tle_line2": "2 42969  98.7770 276.1297 0000945  85.8430 274.2854 14.19513611421797"
      },
      "geometry": {
        "type": "Point",
        "coordinates": [
          -81.16289025852076,
          -15.35256843639821
        ]
      }
    },
    {
      "type": "Feature",
      "properties": {
        "norad_id": 42987,
        "name": "SKYSAT-C11",
        "group": "resource",
        "lat": -68.62058484305871,
        "lon": 134.44195441284032,
        "alt_km": 433.83438994745575,
        "timestamp": "2025-12-03T17:47:50.369674+00:00",
        "meta_object_name": "SKYSAT-C11",
        "meta_object_id": "2017-068A",
        "meta_epoch": "2025-12-03T08:47:01.689792",
        "meta_mean_motion": 15.46841256,
        "meta_eccentricity": 9.22e-05,
        "meta_inclination": 97.4135,
        "meta_ra_of_asc_node": 114.6304,
        "meta_arg_of_pericenter": 113.1127,
        "meta_mean_anomaly": 247.022,
        "meta_ephemeris_type": 0,
        "meta_classification_type": "U",
        "meta_norad_cat_id": 42987,
        "meta_element_set_no": 999,
        "meta_rev_at_epoch": 45286,
        "meta_bstar": 0.00056547,
        "meta_mean_motion_dot": 0.00028363,
        "meta_mean_motion_ddot": 0,
        "tle_line1": "1 42987U 17068A   25337.36599178  .00028363  00000+0  56547-3 0  9991",
        "tle_line2": "2 42987  97.4135 114.6304 0000922 113.1127 247.0220 15.46841256452863"
      },
      "geometry": {
        "type": "Point",
        "coordinates": [
          134.44195441284032,
          -68.62058484305871
        ]
      }
    }
  ]
}